ACS3                    
1 59588U 24077B   24121.76833166  .00000019  00000+0  56420-4 0  9995
2 59588  97.4074 200.9589 0019444 221.0542 138.9146 13.67673844   921
